{
  "type": "FeatureCollection",
  "features": [
    {
      "type": "Feature",
      "properties": {
        "norad_id": 66851,
        "name": "STARLINK-36094",
        "group": "last-30-days",
        "lat": -41.97584575068253,
        "lon": 15.983356090546545,
        "alt_km": 303.0430887979319,
        "timestamp": "2025-12-12T22:42:11.307902+00:00",
        "meta_object_name": "STARLINK-36094",
        "meta_object_id": "2025-281D",
        "meta_epoch": "2025-12-12T06:00:00.999648",
        "meta_mean_motion": 15.92003928,
        "meta_eccentricity": 0.00015449,
        "meta_inclination": 43.0012,
        "meta_ra_of_asc_node": 125.4199,
        "meta_arg_of_pericenter": 270.5048,
        "meta_mean_anomaly": 316.6742,
        "meta_ephemeris_type": 0,
        "meta_classification_type": "U",
        "meta_norad_cat_id": 66851,
        "meta_element_set_no": 999,
        "meta_rev_at_epoch": 132,
        "meta_bstar": -0.0033597051,
        "meta_mean_motion_dot": -0.01155548,
        "meta_mean_motion_ddot": 0.00039356022,
        "tle_line1": "1 66851U 25281D   25346.25001157 -.01155548  39356-3 -33597-2 0  9994",
        "tle_line2": "2 66851  43.0012 125.4199 0001544 270.5048 316.6742 15.92003928  1323"
      },
      "geometry": {
        "type": "Point",
        "coordinates": [
          15.983356090546545,
          -41.97584575068253
        ]
      }
    },
    {
      "type": "Feature",
      "properties": {
        "norad_id": 66852,
        "name": "STARLINK-35992",
        "group": "last-30-days",
        "lat": -42.3340835720208,
        "lon": 18.945620567394794,
        "alt_km": 302.90361349208797,
        "timestamp": "2025-12-12T22:42:11.307911+00:00",
        "meta_object_name": "STARLINK-35992",
        "meta_object_id": "2025-281E",
        "meta_epoch": "2025-12-12T06:00:00.999648",
        "meta_mean_motion": 15.92050299,
        "meta_eccentricity": 0.0001606,
        "meta_inclination": 43.0014,
        "meta_ra_of_asc_node": 125.4148,
        "meta_arg_of_pericenter": 271.7344,
        "meta_mean_anomaly": 317.5716,
        "meta_ephemeris_type": 0,
        "meta_classification_type": "U",
        "meta_norad_cat_id": 66852,
        "meta_element_set_no": 999,
        "meta_rev_at_epoch": 132,
        "meta_bstar": -0.0033709939,
        "meta_mean_motion_dot": -0.01162179,
        "meta_mean_motion_ddot": 0.0003978768,
        "tle_line1": "1 66852U 25281E   25346.25001157 -.01162179  39788-3 -33710-2 0  9999",
        "tle_line2": "2 66852  43.0014 125.4148 0001606 271.7344 317.5716 15.92050299  1325"
      },
      "geometry": {
        "type": "Point",
        "coordinates": [
          18.945620567394794,
          -42.3340835720208
        ]
      }
    },
    {
      "type": "Feature",
      "properties": {
        "norad_id": 66853,
        "name": "STARLINK-35986",
        "group": "last-30-days",
        "lat": -42.712277911893935,
        "lon": 23.249881789545277,
        "alt_km": 302.6924469469586,
        "timestamp": "2025-12-12T22:42:11.307923+00:00",
        "meta_object_name": "STARLINK-35986",
        "meta_object_id": "2025-281F",
        "meta_epoch": "2025-12-12T06:00:00.999648",
        "meta_mean_motion": 15.92109961,
        "meta_eccentricity": 0.00017001,
        "meta_inclination": 43.0011,
        "meta_ra_of_asc_node": 125.4068,
        "meta_arg_of_pericenter": 269.3425,
        "meta_mean_anomaly": 323.0355,
        "meta_ephemeris_type": 0,
        "meta_classification_type": "U",
        "meta_norad_cat_id": 66853,
        "meta_element_set_no": 999,
        "meta_rev_at_epoch": 132,
        "meta_bstar": -0.0033927239,
        "meta_mean_motion_dot": -0.0117322,
        "meta_mean_motion_ddot": 0.00040504845,
        "tle_line1": "1 66853U 25281F   25346.25001157 -.01173220  40505-3 -33927-2 0  9998",
        "tle_line2": "2 66853  43.0011 125.4068 0001700 269.3425 323.0355 15.92109961  1324"
      },
      "geometry": {
        "type": "Point",
        "coordinates": [
          23.249881789545277,
          -42.712277911893935
        ]
      }
    },
    {
      "type": "Feature",
      "properties": {
        "norad_id": 66854,
        "name": "STARLINK-36087",
        "group": "last-30-days",
        "lat": -42.92143677317584,
        "lon": 27.40462286128925,
        "alt_km": 302.48896440818135,
        "timestamp": "2025-12-12T22:42:11.307933+00:00",
        "meta_object_name": "STARLINK-36087",
        "meta_object_id": "2025-281G",
        "meta_epoch": "2025-12-12T06:00:00.999648",
        "meta_mean_motion": 15.92163881,
        "meta_eccentricity": 0.00017744,
        "meta_inclination": 43.0012,
        "meta_ra_of_asc_node": 125.3992,
        "meta_arg_of_pericenter": 264.2973,
        "meta_mean_anomaly": 331.0129,
        "meta_ephemeris_type": 0,
        "meta_classification_type": "U",
        "meta_norad_cat_id": 66854,
        "meta_element_set_no": 999,
        "meta_rev_at_epoch": 132,
        "meta_bstar": -0.0033938214,
        "meta_mean_motion_dot": -0.01176882,
        "meta_mean_motion_ddot": 0.00040757673,
        "tle_line1": "1 66854U 25281G   25346.25001157 -.01176882  40758-3 -33938-2 0  9998",
        "tle_line2": "2 66854  43.0012 125.3992 0001774 264.2973 331.0129 15.92163881  1323"
      },
      "geometry": {
        "type": "Point",
        "coordinates": [
          27.40462286128925,
          -42.92143677317584
        ]
      }
    },
    {
      "type": "Feature",
      "properties": {
        "norad_id": 66855,
        "name": "STARLINK-36090",
        "group": "last-30-days",
        "lat": -42.97983231461447,
        "lon": 30.7971619227543,
        "alt_km": 302.3549387341882,
        "timestamp": "2025-12-12T22:42:11.307943+00:00",
        "meta_object_name": "STARLINK-36090",
        "meta_object_id": "2025-281H",
        "meta_epoch": "2025-12-12T06:00:00.999648",
        "meta_mean_motion": 15.9221011,
        "meta_eccentricity": 0.00017702,
        "meta_inclination": 43.0013,
        "meta_ra_of_asc_node": 125.3934,
        "meta_arg_of_pericenter": 265.6138,
        "meta_mean_anomaly": 332.0674,
        "meta_ephemeris_type": 0,
        "meta_classification_type": "U",
        "meta_norad_cat_id": 66855,
        "meta_element_set_no": 999,
        "meta_rev_at_epoch": 130,
        "meta_bstar": -0.0033776412,
        "meta_mean_motion_dot": -0.01174128,
        "meta_mean_motion_ddot": 0.00040601585,
        "tle_line1": "1 66855U 25281H   25346.25001157 -.01174128  40602-3 -33776-2 0  9998",
        "tle_line2": "2 66855  43.0013 125.3934 0001770 265.6138 332.0674 15.92210110  1307"
      },
      "geometry": {
        "type": "Point",
        "coordinates": [
          30.7971619227543,
          -42.97983231461447
        ]
      }
    },
    {
      "type": "Feature",
      "properties": {
        "norad_id": 66856,
        "name": "STARLINK-36072",
        "group": "last-30-days",
        "lat": -42.922097378004,
        "lon": 34.71075244516394,
        "alt_km": 302.36981660402034,
        "timestamp": "2025-12-12T22:42:11.307953+00:00",
        "meta_object_name": "STARLINK-36072",
        "meta_object_id": "2025-281J",
        "meta_epoch": "2025-12-12T06:00:00.999648",
        "meta_mean_motion": 15.92266827,
        "meta_eccentricity": 0.00015756,
        "meta_inclination": 43.0013,
        "meta_ra_of_asc_node": 125.3864,
        "meta_arg_of_pericenter": 269.23,
        "meta_mean_anomaly": 331.2039,
        "meta_ephemeris_type": 0,
        "meta_classification_type": "U",
        "meta_norad_cat_id": 66856,
        "meta_element_set_no": 999,
        "meta_rev_at_epoch": 132,
        "meta_bstar": -0.0034020027,
        "meta_mean_motion_dot": -0.01185946,
        "meta_mean_motion_ddot": 0.00041374598,
        "tle_line1": "1 66856U 25281J   25346.25001157 -.01185946  41375-3 -34020-2 0  9990",
        "tle_line2": "2 66856  43.0013 125.3864 0001575 269.2300 331.2039 15.92266827  1328"
      },
      "geometry": {
        "type": "Point",
        "coordinates": [
          34.71075244516394,
          -42.922097378004
        ]
      }
    },
    {
      "type": "Feature",
      "properties": {
        "norad_id": 66857,
        "name": "STARLINK-36083",
        "group": "last-30-days",
        "lat": -42.77254575228131,
        "lon": 37.951016043528824,
        "alt_km": 302.12901361473087,
        "timestamp": "2025-12-12T22:42:11.307965+00:00",
        "meta_object_name": "STARLINK-36083",
        "meta_object_id": "2025-281K",
        "meta_epoch": "2025-12-12T06:00:00.999648",
        "meta_mean_motion": 15.92314621,
        "meta_eccentricity": 0.00017221,
        "meta_inclination": 43.0012,
        "meta_ra_of_asc_node": 125.3807,
        "meta_arg_of_pericenter": 269.3877,
        "meta_mean_anomaly": 333.3143,
        "meta_ephemeris_type": 0,
        "meta_classification_type": "U",
        "meta_norad_cat_id": 66857,
        "meta_element_set_no": 999,
        "meta_rev_at_epoch": 132,
        "meta_bstar": -0.0033945167,
        "meta_mean_motion_dot": -0.01186319,
        "meta_mean_motion_ddot": 0.00041417569,
        "tle_line1": "1 66857U 25281K   25346.25001157 -.01186319  41418-3 -33945-2 0  9999",
        "tle_line2": "2 66857  43.0012 125.3807 0001722 269.3877 333.3143 15.92314621  1324"
      },
      "geometry": {
        "type": "Point",
        "coordinates": [
          37.951016043528824,
          -42.77254575228131
        ]
      }
    }
  ]
}